[{"OBJECT_NAME":"STARLINK-5068","OBJECT_ID":"2023-014AJ","EPOCH":"2026-03-09T10:43:04.439424","MEAN_MOTION":14.98327616,"ECCENTRICITY":0.00033795,"INCLINATION":69.9991,"RA_OF_ASC_NODE":85.157,"ARG_OF_PERICENTER":269.503,"MEAN_ANOMALY":90.5742,"EPHEMERIS_TYPE":0,"CLASSIFICATION_TYPE":"U","NORAD_CAT_ID":55423,"ELEMENT_SET_NO":999,"REV_AT_EPOCH":17152,"BSTAR":-3.3395787e-5,"MEAN_MOTION_DOT":-4.91e-6,"MEAN_MOTION_DDOT":0},{"OBJECT_NAME":"COSMOS 2251 DEB","OBJECT_ID":"1993-036NN","EPOCH":"2026-03-09T07:26:11.225760","MEAN_MOTION":14.9633519,"ECCENTRICITY":0.00121484,"INCLINATION":74.0636,"RA_OF_ASC_NODE":162.8967,"ARG_OF_PERICENTER":260.3814,"MEAN_ANOMALY":99.5998,"EPHEMERIS_TYPE":0,"CLASSIFICATION_TYPE":"U","NORAD_CAT_ID":34316,"ELEMENT_SET_NO":999,"REV_AT_EPOCH":90502,"BSTAR":0.0021825431,"MEAN_MOTION_DOT":0.00024784,"MEAN_MOTION_DDOT":0}]
